COSMOS 1933             
1 18958U 88020A   25352.42509061  .00004333  00000+0  21678-3 0  9992
2 18958  82.5129 331.2606 0006200 112.6294 247.5596 15.17154411 37901
SL-3 R/B                
1 19046U 88032B   25352.59349787  .00003728  00000+0  18086-3 0  9995
2 19046  97.5078 331.2735 0027342 152.9021 207.3647 15.18798712 39796
SL-16 R/B               
1 19120U 88039B   25352.38408388  .00000131  00000+0  84553-4 0  9993
2 19120  71.0138 240.4642 0019612 106.6073 253.7208 14.19597467946840
COSMOS 1953             
1 19210U 88050A   25351.75027580  .00004793  00000+0  17925-3 0  9993
2 19210  82.5093 240.5536 0013540  56.0210 304.2313 15.26995692 25270
SL-8 R/B                
1 19257U 88053B   25352.54119616  .00000202  00000+0  73929-4 0  9995
2 19257  74.0476 262.0277 0018963 103.9345  69.2325 14.38862668964921
COSMOS 1975             
1 19573U 88093A   25352.61490096  .00005598  00000+0  21241-3 0  9994
2 19573  82.5193 198.9467 0013051  94.2571 266.0159 15.26554156  7036
SL-14 R/B               
1 19574U 88093B   25352.43343419  .00000439  00000+0  47848-4 0  9992
2 19574  82.5311 118.3241 0019540 309.6791 113.3309 14.85555199988975
SL-16 R/B               
1 19650U 88102B   25352.32121825  .00000262  00000+0  15658-3 0  9998
2 19650  71.0001 322.6987 0012747 142.2541 217.9479 14.16138400915371
INTERCOSMOS 24          
1 20261U 89080A   25352.46440836  .00000628  00000+0  17615-3 0  9996
2 20261  82.6049 157.2308 1188923 121.2456 251.0636 12.59449914656571
SL-14 R/B               
1 20262U 89080C   25352.58470643  .00000320  00000+0  91727-4 0  9995
2 20262  82.5923 225.2689 1230567  10.2330 352.1510 12.50418287650017
DELTA 1 R/B             
1 20323U 89089B   25352.57198264  .00000257  00000+0  72346-4 0  9992
2 20323  97.0747 207.8851 0069688  20.0898 340.3019 14.50576667883973
ARIANE 40 R/B           
1 20443U 90005H   25352.57675307  .00000235  00000+0  88349-4 0  9999
2 20443  98.3237  50.5897 0011291  90.0032 270.2450 14.39802925881133
