CCSDS_OMM_VERS = 2.0
CREATION_DATE  = 
ORIGINATOR     = 

OBJECT_NAME    = COSMOS 1933
OBJECT_ID      = 1988-020A
CENTER_NAME    = EARTH
REF_FRAME      = TEME
TIME_SYSTEM    = UTC
MEAN_ELEMENT_THEORY = SGP/SGP4

EPOCH          = 2025-12-18T10:12:07.828704
MEAN_MOTION    = 15.17154411
ECCENTRICITY   = .00062
INCLINATION    = 82.5129
RA_OF_ASC_NODE = 331.2606
ARG_OF_PERICENTER = 112.6294
MEAN_ANOMALY   = 247.5596

EPHEMERIS_TYPE = 0
CLASSIFICATION_TYPE = U
NORAD_CAT_ID   = 18958
ELEMENT_SET_NO = 999
REV_AT_EPOCH   = 3790
BSTAR          = .21678037E-3
MEAN_MOTION_DOT = .4333E-4
MEAN_MOTION_DDOT = 0

CCSDS_OMM_VERS = 2.0
CREATION_DATE  = 
ORIGINATOR     = 

OBJECT_NAME    = SL-3 R/B
OBJECT_ID      = 1988-032B
CENTER_NAME    = EARTH
REF_FRAME      = TEME
TIME_SYSTEM    = UTC
MEAN_ELEMENT_THEORY = SGP/SGP4

EPOCH          = 2025-12-18T14:14:38.215968
MEAN_MOTION    = 15.18798712
ECCENTRICITY   = .00273429
INCLINATION    = 97.5078
RA_OF_ASC_NODE = 331.2735
ARG_OF_PERICENTER = 152.9021
MEAN_ANOMALY   = 207.3647

EPHEMERIS_TYPE = 0
CLASSIFICATION_TYPE = U
NORAD_CAT_ID   = 19046
ELEMENT_SET_NO = 999
REV_AT_EPOCH   = 3979
BSTAR          = .18086322E-3
MEAN_MOTION_DOT = .3728E-4
MEAN_MOTION_DDOT = 0

CCSDS_OMM_VERS = 2.0
CREATION_DATE  = 
ORIGINATOR     = 

OBJECT_NAME    = SL-16 R/B
OBJECT_ID      = 1988-039B
CENTER_NAME    = EARTH
REF_FRAME      = TEME
TIME_SYSTEM    = UTC
MEAN_ELEMENT_THEORY = SGP/SGP4

EPOCH          = 2025-12-18T09:13:04.847232
MEAN_MOTION    = 14.19597467
ECCENTRICITY   = .00196127
INCLINATION    = 71.0138
RA_OF_ASC_NODE = 240.4642
ARG_OF_PERICENTER = 106.6073
MEAN_ANOMALY   = 253.7208

EPHEMERIS_TYPE = 0
CLASSIFICATION_TYPE = U
NORAD_CAT_ID   = 19120
ELEMENT_SET_NO = 999
REV_AT_EPOCH   = 94684
BSTAR          = .84552681E-4
MEAN_MOTION_DOT = .131E-5
MEAN_MOTION_DDOT = 0

CCSDS_OMM_VERS = 2.0
CREATION_DATE  = 
ORIGINATOR     = 

OBJECT_NAME    = COSMOS 1953
OBJECT_ID      = 1988-050A
CENTER_NAME    = EARTH
REF_FRAME      = TEME
TIME_SYSTEM    = UTC
MEAN_ELEMENT_THEORY = SGP/SGP4

EPOCH          = 2025-12-17T18:00:23.829120
MEAN_MOTION    = 15.26995692
ECCENTRICITY   = .00135407
INCLINATION    = 82.5093
RA_OF_ASC_NODE = 240.5536
ARG_OF_PERICENTER = 56.0210
MEAN_ANOMALY   = 304.2313

EPHEMERIS_TYPE = 0
CLASSIFICATION_TYPE = U
NORAD_CAT_ID   = 19210
ELEMENT_SET_NO = 999
REV_AT_EPOCH   = 2527
BSTAR          = .17925093E-3
MEAN_MOTION_DOT = .4793E-4
MEAN_MOTION_DDOT = 0

CCSDS_OMM_VERS = 2.0
CREATION_DATE  = 
ORIGINATOR     = 

OBJECT_NAME    = SL-8 R/B
OBJECT_ID      = 1988-053B
CENTER_NAME    = EARTH
REF_FRAME      = TEME
TIME_SYSTEM    = UTC
MEAN_ELEMENT_THEORY = SGP/SGP4

EPOCH          = 2025-12-18T12:59:19.348224
MEAN_MOTION    = 14.38862668
ECCENTRICITY   = .00189637
INCLINATION    = 74.0476
RA_OF_ASC_NODE = 262.0277
ARG_OF_PERICENTER = 103.9345
MEAN_ANOMALY   = 69.2325

EPHEMERIS_TYPE = 0
CLASSIFICATION_TYPE = U
NORAD_CAT_ID   = 19257
ELEMENT_SET_NO = 999
REV_AT_EPOCH   = 96492
BSTAR          = .73929352E-4
MEAN_MOTION_DOT = .202E-5
MEAN_MOTION_DDOT = 0

CCSDS_OMM_VERS = 2.0
CREATION_DATE  = 
ORIGINATOR     = 

OBJECT_NAME    = COSMOS 1975
OBJECT_ID      = 1988-093A
CENTER_NAME    = EARTH
REF_FRAME      = TEME
TIME_SYSTEM    = UTC
MEAN_ELEMENT_THEORY = SGP/SGP4

EPOCH          = 2025-12-18T14:45:27.442944
MEAN_MOTION    = 15.26554156
ECCENTRICITY   = .00130511
INCLINATION    = 82.5193
RA_OF_ASC_NODE = 198.9467
ARG_OF_PERICENTER = 94.2571
MEAN_ANOMALY   = 266.0159

EPHEMERIS_TYPE = 0
CLASSIFICATION_TYPE = U
NORAD_CAT_ID   = 19573
ELEMENT_SET_NO = 999
REV_AT_EPOCH   = 703
BSTAR          = .21240556E-3
MEAN_MOTION_DOT = .5598E-4
MEAN_MOTION_DDOT = 0

CCSDS_OMM_VERS = 2.0
CREATION_DATE  = 
ORIGINATOR     = 

OBJECT_NAME    = SL-14 R/B
OBJECT_ID      = 1988-093B
CENTER_NAME    = EARTH
REF_FRAME      = TEME
TIME_SYSTEM    = UTC
MEAN_ELEMENT_THEORY = SGP/SGP4

EPOCH          = 2025-12-18T10:24:08.714016
MEAN_MOTION    = 14.85555199
ECCENTRICITY   = .00195402
INCLINATION    = 82.5311
RA_OF_ASC_NODE = 118.3241
ARG_OF_PERICENTER = 309.6791
MEAN_ANOMALY   = 113.3309

EPHEMERIS_TYPE = 0
CLASSIFICATION_TYPE = U
NORAD_CAT_ID   = 19574
ELEMENT_SET_NO = 999
REV_AT_EPOCH   = 98897
BSTAR          = .4784772E-4
MEAN_MOTION_DOT = .439E-5
MEAN_MOTION_DDOT = 0

CCSDS_OMM_VERS = 2.0
CREATION_DATE  = 
ORIGINATOR     = 

OBJECT_NAME    = SL-16 R/B
OBJECT_ID      = 1988-102B
CENTER_NAME    = EARTH
REF_FRAME      = TEME
TIME_SYSTEM    = UTC
MEAN_ELEMENT_THEORY = SGP/SGP4

EPOCH          = 2025-12-18T07:42:33.256800
MEAN_MOTION    = 14.16138400
ECCENTRICITY   = .00127472
INCLINATION    = 71.0001
RA_OF_ASC_NODE = 322.6987
ARG_OF_PERICENTER = 142.2541
MEAN_ANOMALY   = 217.9479

EPHEMERIS_TYPE = 0
CLASSIFICATION_TYPE = U
NORAD_CAT_ID   = 19650
ELEMENT_SET_NO = 999
REV_AT_EPOCH   = 91537
BSTAR          = .15657964E-3
MEAN_MOTION_DOT = .262E-5
MEAN_MOTION_DDOT = 0

CCSDS_OMM_VERS = 2.0
CREATION_DATE  = 
ORIGINATOR     = 

OBJECT_NAME    = INTERCOSMOS 24
OBJECT_ID      = 1989-080A
CENTER_NAME    = EARTH
REF_FRAME      = TEME
TIME_SYSTEM    = UTC
MEAN_ELEMENT_THEORY = SGP/SGP4

EPOCH          = 2025-12-18T11:08:44.882304
MEAN_MOTION    = 12.59449914
ECCENTRICITY   = .11889239
INCLINATION    = 82.6049
RA_OF_ASC_NODE = 157.2308
ARG_OF_PERICENTER = 121.2456
MEAN_ANOMALY   = 251.0636

EPHEMERIS_TYPE = 0
CLASSIFICATION_TYPE = U
NORAD_CAT_ID   = 20261
ELEMENT_SET_NO = 999
REV_AT_EPOCH   = 65657
BSTAR          = .17615387E-3
MEAN_MOTION_DOT = .628E-5
MEAN_MOTION_DDOT = 0

CCSDS_OMM_VERS = 2.0
CREATION_DATE  = 
ORIGINATOR     = 

OBJECT_NAME    = SL-14 R/B
OBJECT_ID      = 1989-080C
CENTER_NAME    = EARTH
REF_FRAME      = TEME
TIME_SYSTEM    = UTC
MEAN_ELEMENT_THEORY = SGP/SGP4

EPOCH          = 2025-12-18T14:01:58.635552
MEAN_MOTION    = 12.50418287
ECCENTRICITY   = .12305676
INCLINATION    = 82.5923
RA_OF_ASC_NODE = 225.2689
ARG_OF_PERICENTER = 10.2330
MEAN_ANOMALY   = 352.1510

EPHEMERIS_TYPE = 0
CLASSIFICATION_TYPE = U
NORAD_CAT_ID   = 20262
ELEMENT_SET_NO = 999
REV_AT_EPOCH   = 65001
BSTAR          = .91727281E-4
MEAN_MOTION_DOT = .32E-5
MEAN_MOTION_DDOT = 0

CCSDS_OMM_VERS = 2.0
CREATION_DATE  = 
ORIGINATOR     = 

OBJECT_NAME    = DELTA 1 R/B
OBJECT_ID      = 1989-089B
CENTER_NAME    = EARTH
REF_FRAME      = TEME
TIME_SYSTEM    = UTC
MEAN_ELEMENT_THEORY = SGP/SGP4

EPOCH          = 2025-12-18T13:43:39.300096
MEAN_MOTION    = 14.50576667
ECCENTRICITY   = .00696886
INCLINATION    = 97.0747
RA_OF_ASC_NODE = 207.8851
ARG_OF_PERICENTER = 20.0898
MEAN_ANOMALY   = 340.3019

EPHEMERIS_TYPE = 0
CLASSIFICATION_TYPE = U
NORAD_CAT_ID   = 20323
ELEMENT_SET_NO = 999
REV_AT_EPOCH   = 88397
BSTAR          = .72345736E-4
MEAN_MOTION_DOT = .257E-5
MEAN_MOTION_DDOT = 0

CCSDS_OMM_VERS = 2.0
CREATION_DATE  = 
ORIGINATOR     = 

OBJECT_NAME    = ARIANE 40 R/B
OBJECT_ID      = 1990-005H
CENTER_NAME    = EARTH
REF_FRAME      = TEME
TIME_SYSTEM    = UTC
MEAN_ELEMENT_THEORY = SGP/SGP4

EPOCH          = 2025-12-18T13:50:31.465248
MEAN_MOTION    = 14.39802925
ECCENTRICITY   = .00112912
INCLINATION    = 98.3237
RA_OF_ASC_NODE = 50.5897
ARG_OF_PERICENTER = 90.0032
MEAN_ANOMALY   = 270.2450

EPHEMERIS_TYPE = 0
CLASSIFICATION_TYPE = U
NORAD_CAT_ID   = 20443
ELEMENT_SET_NO = 999
REV_AT_EPOCH   = 88113
BSTAR          = .88348714E-4
MEAN_MOTION_DOT = .235E-5
MEAN_MOTION_DDOT = 0

